{
  "type": "FeatureCollection",
  "generator": "overpass-turbo",
  "copyright": "The data included in this document is from www.openstreetmap.org. The data is made available under ODbL.",
  "timestamp": "2026-07-29T17:00:47Z",
  "features": [
    {
      "type": "Feature",
      "properties": {
        "@id": "way/11075222",
        "highway": "tertiary",
        "name": "সড়ক ২৭",
        "name:bn": "সড়ক ২৭",
        "name:en": "Road 27",
        "name:ur": "روڈ 27"
      },
      "geometry": {
        "type": "LineString",
        "coordinates": [
          [
            90.4085753,
            23.7935169
          ],
          [
            90.4086075,
            23.7937006
          ],
          [
            90.408618,
            23.7940009
          ],
          [
            90.4086054,
            23.7941704
          ],
          [
            90.4085099,
            23.794533
          ],
          [
            90.4084633,
            23.7946701
          ],
          [
            90.4084005,
            23.7948452
          ],
          [
            90.4082329,
            23.7952775
          ],
          [
            90.4081944,
            23.7953718
          ],
          [
            90.4080487,
            23.7956889
          ],
          [
            90.4078948,
            23.7959775
          ],
          [
            90.4078044,
            23.7961305
          ],
          [
            90.4075234,
            23.7965954
          ],
          [
            90.4072214,
            23.7971326
          ],
          [
            90.4069959,
            23.7974416
          ],
          [
            90.4068187,
            23.7976677
          ],
          [
            90.4066927,
            23.7978065
          ],
          [
            90.4065786,
            23.7979328
          ],
          [
            90.4063412,
            23.7981271
          ],
          [
            90.4055891,
            23.7984731
          ],
          [
            90.4048741,
            23.7986849
          ],
          [
            90.4044481,
            23.7987945
          ],
          [
            90.4038058,
            23.7989012
          ],
          [
            90.4025953,
            23.799074
          ],
          [
            90.4020058,
            23.7991469
          ],
          [
            90.401837,
            23.7991678
          ]
        ]
      },
      "id": "way/11075222"
    },
    {
      "type": "Feature",
      "properties": {
        "@id": "way/13848342",
        "access": "yes",
        "cycle_rickshaw": "no",
        "highway": "trunk",
        "lanes": "4",
        "lit": "yes",
        "maxheight": "4.8",
        "name": "বিমানবন্দর সড়ক",
        "name:bn": "বিমানবন্দর সড়ক",
        "name:en": "Airport Road",
        "oneway": "yes",
        "sidewalk": "left",
        "surface": "asphalt",
        "vehicle": "yes"
      },
      "geometry": {
        "type": "LineString",
        "coordinates": [
          [
            90.3891005,
            23.7643021
          ],
          [
            90.3891001,
            23.7640766
          ],
          [
            90.3891031,
            23.7639869
          ],
          [
            90.3891178,
            23.7636545
          ],
          [
            90.3891701,
            23.76317
          ],
          [
            90.3891933,
            23.7629803
          ],
          [
            90.3892339,
            23.7625669
          ],
          [
            90.3893038,
            23.7618759
          ],
          [
            90.3894022,
            23.7611129
          ],
          [
            90.3895709,
            23.760186
          ],
          [
            90.3896672,
            23.7597966
          ],
          [
            90.3898091,
            23.7592225
          ],
          [
            90.3898427,
            23.7591303
          ],
          [
            90.389887,
            23.7590475
          ]
        ]
      },
      "id": "way/13848342"
    },
    {
      "type": "Feature",
      "properties": {
        "@id": "way/13849521",
        "highway": "residential",
        "name": "সড়ক ৮",
        "name:en": "Road 8",
        "surface": "asphalt"
      },
      "geometry": {
        "type": "LineString",
        "coordinates": [
          [
            90.4040189,
            23.7909332
          ],
          [
            90.404086,
            23.7914464
          ],
          [
            90.4041878,
            23.7920093
          ],
          [
            90.4042715,
            23.7925389
          ],
          [
            90.4043848,
            23.7931815
          ]
        ]
      },
      "id": "way/13849521"
    },
    {
      "type": "Feature",
      "properties": {
        "@id": "way/15491645",
        "access": "yes",
        "agricultural": "yes",
        "alt_name": "বিজয় সরণি",
        "bicycle": "yes",
        "cycle_rickshaw": "no",
        "emergency": "yes",
        "foot": "yes",
        "goods": "yes",
        "hgv": "yes",
        "highway": "primary",
        "horse": "yes",
        "hov": "yes",
        "lanes": "3",
        "lit": "yes",
        "maxspeed": "60",
        "motor_vehicle": "yes",
        "motorcar": "yes",
        "motorcycle": "yes",
        "name": "বিজয় সরণী",
        "name:bn": "বিজয় সরণী",
        "name:en": "Bijoy Sharani",
        "oneway": "yes",
        "psv": "yes",
        "sidewalk": "left",
        "smoothness": "good",
        "surface": "asphalt",
        "tourist_bus": "yes",
        "vehicle": "yes",
        "wikidata": "Q16346007",
        "wikipedia": "bn:বিজয় সরণি"
      },
      "geometry": {
        "type": "LineString",
        "coordinates": [
          [
            90.383385,
            23.7654407
          ],
          [
            90.3834225,
            23.7653923
          ],
          [
            90.3834816,
            23.7653513
          ],
          [
            90.3835997,
            23.7653025
          ],
          [
            90.383736,
            23.7652752
          ],
          [
            90.3838359,
            23.7652465
          ],
          [
            90.3840185,
            23.7652196
          ],
          [
            90.3842776,
            23.7651726
          ],
          [
            90.3876266,
            23.7646051
          ],
          [
            90.3877508,
            23.764579
          ],
          [
            90.3879836,
            23.7645416
          ],
          [
            90.3882136,
            23.7645176
          ],
          [
            90.3884152,
            23.7645106
          ],
          [
            90.3888301,
            23.7645133
          ],
          [
            90.3889455,
            23.7645191
          ]
        ]
      },
      "id": "way/15491645"
    },
    {
      "type": "Feature",
      "properties": {
        "@id": "way/23895118",
        "highway": "residential",
        "name": "আব্দুল আলিম নাকিব সড়ক",
        "name:bn": "আব্দুল আলিম নাকিব সড়ক",
        "name:en": "Abdul Alim Nakib Road",
        "surface": "asphalt"
      },
      "geometry": {
        "type": "LineString",
        "coordinates": [
          [
            90.4065452,
            23.7931185
          ],
          [
            90.407477,
            23.7929943
          ],
          [
            90.4075672,
            23.7929834
          ],
          [
            90.4083526,
            23.7928846
          ]
        ]
      },
      "id": "way/23895118"
    },
    {
      "type": "Feature",
      "properties": {
        "@id": "way/23895119",
        "highway": "tertiary",
        "lane_markings": "no",
        "name": "এনামুল হক চৌধুরী সড়ক",
        "name:en": "Enamul Haque Chowdhury Road, Road 10",
        "surface": "asphalt"
      },
      "geometry": {
        "type": "LineString",
        "coordinates": [
          [
            90.4061414,
            23.7906366
          ],
          [
            90.4061901,
            23.7909355
          ],
          [
            90.4062874,
            23.7915335
          ],
          [
            90.4063179,
            23.7917211
          ],
          [
            90.4063642,
            23.792006
          ],
          [
            90.4064673,
            23.7926399
          ],
          [
            90.406507,
            23.7928837
          ],
          [
            90.4065452,
            23.7931185
          ],
          [
            90.406586,
            23.7933693
          ],
          [
            90.4066298,
            23.7936384
          ]
        ]
      },
      "id": "way/23895119"
    },
    {
      "type": "Feature",
      "properties": {
        "@id": "way/23895144",
        "highway": "residential",
        "name": "বীর উত্তম আমিনুল হক সড়ক",
        "name:en": "Road 17"
      },
      "geometry": {
        "type": "LineString",
        "coordinates": [
          [
            90.4030277,
            23.7937015
          ],
          [
            90.4058395,
            23.7933046
          ]
        ]
      },
      "id": "way/23895144"
    },
    {
      "type": "Feature",
      "properties": {
        "@id": "way/24338689",
        "highway": "residential",
        "name": "সড়ক ১৩এ",
        "name:en": "Road 13A"
      },
      "geometry": {
        "type": "LineString",
        "coordinates": [
          [
            90.404086,
            23.7914464
          ],
          [
            90.4056311,
            23.791215
          ]
        ]
      },
      "id": "way/24338689"
    },
    {
      "type": "Feature",
      "properties": {
        "@id": "way/24338690",
        "highway": "residential",
        "name": "সড়ক ১৫",
        "name:bn": "সড়ক ১৫",
        "name:en": "Road 15"
      },
      "geometry": {
        "type": "LineString",
        "coordinates": [
          [
            90.4055431,
            23.7907202
          ],
          [
            90.4056311,
            23.791215
          ],
          [
            90.4057328,
            23.7917918
          ],
          [
            90.4057879,
            23.7923028
          ],
          [
            90.4057783,
            23.7923391
          ]
        ]
      },
      "id": "way/24338690"
    },
    {
      "type": "Feature",
      "properties": {
        "@id": "way/24338691",
        "highway": "residential",
        "lane_markings": "no",
        "name": "সড়ক ১৩ই",
        "name:en": "Road 13E",
        "surface": "asphalt"
      },
      "geometry": {
        "type": "LineString",
        "coordinates": [
          [
            90.4062874,
            23.7915335
          ],
          [
            90.4071631,
            23.7914134
          ],
          [
            90.4080889,
            23.7912906
          ],
          [
            90.4086664,
            23.7912175
          ],
          [
            90.4090074,
            23.7911742
          ],
          [
            90.4091293,
            23.7911588
          ],
          [
            90.4092453,
            23.7911439
          ]
        ]
      },
      "id": "way/24338691"
    },
    {
      "type": "Feature",
      "properties": {
        "@id": "way/24338693",
        "highway": "residential",
        "lane_markings": "no",
        "name": "সড়ক ১৭",
        "name:en": "Road 17",
        "name:ur": "روڈ 17",
        "surface": "asphalt"
      },
      "geometry": {
        "type": "LineString",
        "coordinates": [
          [
            90.4016554,
            23.7935643
          ],
          [
            90.4029708,
            23.7933798
          ],
          [
            90.4041478,
            23.7932147
          ],
          [
            90.4043848,
            23.7931815
          ],
          [
            90.4044775,
            23.7931685
          ],
          [
            90.4057859,
            23.7929849
          ],
          [
            90.406507,
            23.7928837
          ]
        ]
      },
      "id": "way/24338693"
    },
    {
      "type": "Feature",
      "properties": {
        "@id": "way/24338705",
        "highway": "residential",
        "name": "বনানী সুপার মার্কেট সড়ক"
      },
      "geometry": {
        "type": "LineString",
        "coordinates": [
          [
            90.4057859,
            23.7929849
          ],
          [
            90.4058395,
            23.7933046
          ],
          [
            90.4059285,
            23.7937443
          ]
        ]
      },
      "id": "way/24338705"
    },
    {
      "type": "Feature",
      "properties": {
        "@id": "way/24375730",
        "cycle_rickshaw": "no",
        "highway": "trunk",
        "lanes": "4",
        "maxspeed": "60",
        "name": "বিমানবন্দর সড়ক",
        "name:bn": "বিমানবন্দর সড়ক",
        "name:en": "Airport Road",
        "oneway": "yes",
        "source": "bing",
        "surface": "asphalt"
      },
      "geometry": {
        "type": "LineString",
        "coordinates": [
          [
            90.3895273,
            23.7695034
          ],
          [
            90.3894792,
            23.7691467
          ],
          [
            90.3894177,
            23.7687838
          ],
          [
            90.3893875,
            23.7686207
          ],
          [
            90.389364,
            23.7685178
          ],
          [
            90.3893087,
            23.7683533
          ],
          [
            90.3892795,
            23.7681586
          ],
          [
            90.3892705,
            23.7680946
          ],
          [
            90.3891862,
            23.7674929
          ],
          [
            90.3891633,
            23.7671319
          ],
          [
            90.3891505,
            23.7668099
          ],
          [
            90.3890965,
            23.7661964
          ],
          [
            90.3890845,
            23.7659319
          ],
          [
            90.3890739,
            23.7656497
          ],
          [
            90.389043,
            23.7652515
          ],
          [
            90.3890447,
            23.76512
          ],
          [
            90.3890616,
            23.7648362
          ],
          [
            90.3890653,
            23.7647768
          ],
          [
            90.3890859,
            23.7645223
          ]
        ]
      },
      "id": "way/24375730"
    },
    {
      "type": "Feature",
      "properties": {
        "@id": "way/24449128",
        "highway": "residential",
        "lanes": "2",
        "name": "সড়ক ১৮",
        "name:en": "Road 18",
        "name:ur": "روڈ 18",
        "surface": "paved"
      },
      "geometry": {
        "type": "LineString",
        "coordinates": [
          [
            90.4055098,
            23.7961473
          ],
          [
            90.4050499,
            23.7956197
          ],
          [
            90.404633,
            23.7947777
          ],
          [
            90.4045258,
            23.7940356
          ]
        ]
      },
      "id": "way/24449128"
    },
    {
      "type": "Feature",
      "properties": {
        "@id": "way/24449129",
        "highway": "secondary",
        "lanes": "2",
        "name": "কামাল আতাতুর্ক এভিনিউ",
        "name:bn": "কামাল আতাতুর্ক এভিনিউ",
        "name:en": "Kamal Ataturk Avenue",
        "name:ur": "کمال اتاترک ایونیو",
        "oneway": "yes",
        "surface": "asphalt"
      },
      "geometry": {
        "type": "LineString",
        "coordinates": [
          [
            90.4010694,
            23.7945245
          ],
          [
            90.401375,
            23.7944779
          ],
          [
            90.4017804,
            23.7944128
          ],
          [
            90.4025452,
            23.794302
          ],
          [
            90.4031331,
            23.7942148
          ],
          [
            90.4045258,
            23.7940356
          ],
          [
            90.4056637,
            23.7938842
          ],
          [
            90.4060589,
            23.7938304
          ],
          [
            90.4066389,
            23.7937491
          ],
          [
            90.4072658,
            23.7936692
          ],
          [
            90.4076666,
            23.7936113
          ],
          [
            90.4083965,
            23.793521
          ],
          [
            90.4085753,
            23.7935169
          ],
          [
            90.4086392,
            23.7935105
          ],
          [
            90.4090543,
            23.7935006
          ],
          [
            90.4094836,
            23.7935193
          ],
          [
            90.4095237,
            23.7935223
          ]
        ]
      },
      "id": "way/24449129"
    },
    {
      "type": "Feature",
      "properties": {
        "@id": "way/24821267",
        "highway": "residential",
        "lanes": "1",
        "name": "সড়ক ২৩",
        "name:en": "Road No. 23",
        "surface": "paved"
      },
      "geometry": {
        "type": "LineString",
        "coordinates": [
          [
            90.4066389,
            23.7937491
          ],
          [
            90.4066807,
            23.7942927
          ],
          [
            90.4066636,
            23.7945402
          ],
          [
            90.4066329,
            23.7946711
          ],
          [
            90.4064785,
            23.7951904
          ],
          [
            90.4063433,
            23.7953758
          ],
          [
            90.4062226,
            23.7955564
          ],
          [
            90.4060662,
            23.7957369
          ],
          [
            90.4058716,
            23.7958962
          ],
          [
            90.4055098,
            23.7961473
          ]
        ]
      },
      "id": "way/24821267"
    },
    {
      "type": "Feature",
      "properties": {
        "@id": "way/33783208",
        "highway": "residential",
        "layer": "-1"
      },
      "geometry": {
        "type": "LineString",
        "coordinates": [
          [
            90.3940319,
            23.7624454
          ],
          [
            90.3935217,
            23.7626077
          ],
          [
            90.3933251,
            23.7626409
          ],
          [
            90.3929979,
            23.7627407
          ],
          [
            90.3927105,
            23.7628417
          ],
          [
            90.3921565,
            23.7630322
          ],
          [
            90.3917363,
            23.7631489
          ],
          [
            90.3916996,
            23.7631654
          ],
          [
            90.3916506,
            23.763187
          ],
          [
            90.3915986,
            23.7632117
          ],
          [
            90.3914148,
            23.763281
          ],
          [
            90.3914068,
            23.7632886
          ],
          [
            90.3913906,
            23.7633007
          ],
          [
            90.3913522,
            23.7633184
          ],
          [
            90.3913154,
            23.7633399
          ],
          [
            90.3912421,
            23.763406
          ],
          [
            90.3910368,
            23.7635712
          ],
          [
            90.3909872,
            23.7636187
          ],
          [
            90.3909393,
            23.7636763
          ],
          [
            90.3908994,
            23.7637264
          ],
          [
            90.3908262,
            23.7638021
          ],
          [
            90.3907828,
            23.7638563
          ],
          [
            90.3907033,
            23.7639388
          ],
          [
            90.3906594,
            23.7639788
          ],
          [
            90.3905811,
            23.7640582
          ],
          [
            90.3905409,
            23.7641042
          ],
          [
            90.3904611,
            23.7641866
          ],
          [
            90.3902328,
            23.7644479
          ]
        ]
      },
      "id": "way/33783208"
    },
    {
      "type": "Feature",
      "properties": {
        "@id": "way/35135774",
        "highway": "residential",
        "name": "সড়ক ১৭/এ",
        "name:bn": "সড়ক ১৭/এ",
        "name:en": "Road 17/A"
      },
      "geometry": {
        "type": "LineString",
        "coordinates": [
          [
            90.4082782,
            23.792435
          ],
          [
            90.4076793,
            23.7925098
          ],
          [
            90.4073961,
            23.7925466
          ],
          [
            90.4070611,
            23.7925818
          ],
          [
            90.4064673,
            23.7926399
          ]
        ]
      },
      "id": "way/35135774"
    },
    {
      "type": "Feature",
      "properties": {
        "@id": "way/35135775",
        "highway": "residential",
        "lane_markings": "no",
        "name": "সড়ক ১৩সি",
        "name:en": "Road 13C",
        "surface": "asphalt"
      },
      "geometry": {
        "type": "LineString",
        "coordinates": [
          [
            90.4063642,
            23.792006
          ],
          [
            90.4069547,
            23.7919472
          ],
          [
            90.407252,
            23.7919123
          ],
          [
            90.4075814,
            23.791872
          ],
          [
            90.4081745,
            23.7918085
          ]
        ]
      },
      "id": "way/35135775"
    },
    {
      "type": "Feature",
      "properties": {
        "@id": "way/35135776",
        "highway": "residential"
      },
      "geometry": {
        "type": "LineString",
        "coordinates": [
          [
            90.4069547,
            23.7919472
          ],
          [
            90.4070611,
            23.7925818
          ]
        ]
      },
      "id": "way/35135776"
    },
    {
      "type": "Feature",
      "properties": {
        "@id": "way/35475400",
        "highway": "residential",
        "name": "সড়ক ২৬",
        "name:bn": "সড়ক ২৬",
        "name:en": "Road 26",
        "name:ur": "روڈ 26"
      },
      "geometry": {
        "type": "LineString",
        "coordinates": [
          [
            90.4072658,
            23.7936692
          ],
          [
            90.4073632,
            23.7940085
          ],
          [
            90.4074262,
            23.7940821
          ],
          [
            90.4084633,
            23.7946701
          ]
        ]
      },
      "id": "way/35475400"
    },
    {
      "type": "Feature",
      "properties": {
        "@id": "way/35475410",
        "highway": "residential",
        "name": "সড়ক ২২",
        "name:bn": "সড়ক ২২",
        "name:en": "Road 22",
        "name:ur": "روڈ 22"
      },
      "geometry": {
        "type": "LineString",
        "coordinates": [
          [
            90.4064785,
            23.7951904
          ],
          [
            90.4078948,
            23.7959775
          ]
        ]
      },
      "id": "way/35475410"
    },
    {
      "type": "Feature",
      "properties": {
        "@id": "way/35475412",
        "highway": "residential",
        "name": "সড়ক ১৩",
        "name:en": "Road 13",
        "surface": "asphalt"
      },
      "geometry": {
        "type": "LineString",
        "coordinates": [
          [
            90.4027917,
            23.7921985
          ],
          [
            90.403345,
            23.7921154
          ],
          [
            90.4041878,
            23.7920093
          ],
          [
            90.4057328,
            23.7917918
          ],
          [
            90.4063179,
            23.7917211
          ]
        ]
      },
      "id": "way/35475412"
    },
    {
      "type": "Feature",
      "properties": {
        "@id": "way/35475419",
        "highway": "residential",
        "surface": "asphalt"
      },
      "geometry": {
        "type": "LineString",
        "coordinates": [
          [
            90.4075814,
            23.791872
          ],
          [
            90.4076119,
            23.7920737
          ],
          [
            90.4076318,
            23.7922053
          ],
          [
            90.4076793,
            23.7925098
          ]
        ]
      },
      "id": "way/35475419"
    },
    {
      "type": "Feature",
      "properties": {
        "@id": "way/92360798",
        "highway": "residential"
      },
      "geometry": {
        "type": "LineString",
        "coordinates": [
          [
            90.4075672,
            23.7929834
          ],
          [
            90.4075947,
            23.7932291
          ],
          [
            90.4076432,
            23.7935181
          ]
        ]
      },
      "id": "way/92360798"
    },
    {
      "type": "Feature",
      "properties": {
        "@id": "way/92360799",
        "highway": "residential",
        "lane_markings": "no",
        "name": "সড়ক ১৭",
        "name:bn": "সড়ক ১৭",
        "name:en": "Road 17",
        "source": "BING",
        "surface": "asphalt"
      },
      "geometry": {
        "type": "LineString",
        "coordinates": [
          [
            90.4083316,
            23.7927579
          ],
          [
            90.4094352,
            23.7926103
          ]
        ]
      },
      "id": "way/92360799"
    },
    {
      "type": "Feature",
      "properties": {
        "@id": "way/141821922",
        "access": "yes",
        "highway": "trunk",
        "lanes": "4",
        "lit": "yes",
        "maxheight": "4.8",
        "maxspeed": "60",
        "name": "পুরাতন বিমানবন্দর সড়ক",
        "name:en": "Old Airport Road",
        "oneway": "yes",
        "sidewalk": "left",
        "surface": "asphalt",
        "vehicle": "yes"
      },
      "geometry": {
        "type": "LineString",
        "coordinates": [
          [
            90.3889538,
            23.7658555
          ],
          [
            90.3889751,
            23.7664238
          ],
          [
            90.3890769,
            23.7678163
          ],
          [
            90.3891218,
            23.7681129
          ],
          [
            90.3891606,
            23.7683696
          ],
          [
            90.3891762,
            23.768472
          ],
          [
            90.3892004,
            23.7686177
          ],
          [
            90.3893488,
            23.7694954
          ],
          [
            90.3893881,
            23.769728
          ],
          [
            90.3895113,
            23.770414
          ],
          [
            90.3896055,
            23.7709337
          ],
          [
            90.3896122,
            23.7710276
          ]
        ]
      },
      "id": "way/141821922"
    },
    {
      "type": "Feature",
      "properties": {
        "@id": "way/141821926",
        "cycle_rickshaw": "no",
        "cycleway:left": "shared_lane",
        "highway": "secondary",
        "lanes": "2",
        "maxspeed": "50",
        "name": "আগারগাঁও লিংক রোড",
        "name:bn": "আগারগাঁও লিংক রোড",
        "name:en": "Agargaon Link Road",
        "oneway": "yes",
        "smoothness": "good",
        "surface": "asphalt"
      },
      "geometry": {
        "type": "LineString",
        "coordinates": [
          [
            90.3891762,
            23.768472
          ],
          [
            90.3890309,
            23.7683942
          ],
          [
            90.3889907,
            23.7683726
          ],
          [
            90.3888597,
            23.7682694
          ],
          [
            90.3887955,
            23.7681972
          ],
          [
            90.3887726,
            23.7681416
          ],
          [
            90.3887751,
            23.7680472
          ],
          [
            90.3888186,
            23.7677687
          ],
          [
            90.3888589,
            23.7675068
          ],
          [
            90.3888627,
            23.7673282
          ],
          [
            90.3888626,
            23.7671933
          ],
          [
            90.3888348,
            23.7667579
          ],
          [
            90.388801,
            23.7660826
          ],
          [
            90.3887806,
            23.7656746
          ],
          [
            90.3887623,
            23.7652939
          ],
          [
            90.3887558,
            23.7652053
          ],
          [
            90.388744,
            23.7651288
          ],
          [
            90.3887204,
            23.7650664
          ],
          [
            90.3886861,
            23.7650162
          ],
          [
            90.3886362,
            23.7649583
          ],
          [
            90.388602,
            23.7649267
          ],
          [
            90.3885678,
            23.7649025
          ],
          [
            90.3885248,
            23.7648823
          ],
          [
            90.3884711,
            23.7648645
          ],
          [
            90.3884172,
            23.7648548
          ],
          [
            90.3883606,
            23.7648524
          ],
          [
            90.3882431,
            23.7648525
          ],
          [
            90.3881122,
            23.7648613
          ],
          [
            90.3875951,
            23.7649398
          ],
          [
            90.3869489,
            23.7650303
          ],
          [
            90.385065,
            23.7653268
          ],
          [
            90.3840349,
            23.7654893
          ],
          [
            90.3839591,
            23.7655073
          ],
          [
            90.3838887,
            23.7655278
          ],
          [
            90.3838335,
            23.7655487
          ],
          [
            90.3837684,
            23.7655757
          ],
          [
            90.3837358,
            23.7655927
          ],
          [
            90.3837031,
            23.7656171
          ],
          [
            90.3836684,
            23.765649
          ],
          [
            90.3836417,
            23.7656809
          ],
          [
            90.3836268,
            23.7656964
          ],
          [
            90.3835562,
            23.7657905
          ],
          [
            90.3834941,
            23.7658924
          ],
          [
            90.3834288,
            23.7660319
          ],
          [
            90.3833784,
            23.7661567
          ],
          [
            90.383343,
            23.7662932
          ],
          [
            90.3830774,
            23.7680012
          ],
          [
            90.3828413,
            23.7696774
          ],
          [
            90.3828351,
            23.769829
          ],
          [
            90.3828217,
            23.7699715
          ],
          [
            90.3828043,
            23.7700832
          ],
          [
            90.3827814,
            23.7702018
          ],
          [
            90.3827572,
            23.7703229
          ],
          [
            90.3827161,
            23.7705164
          ],
          [
            90.3826851,
            23.7706059
          ],
          [
            90.3826118,
            23.7707274
          ],
          [
            90.3825789,
            23.7708086
          ],
          [
            90.3825135,
            23.7710238
          ],
          [
            90.3814304,
            23.7747409
          ],
          [
            90.3814046,
            23.774845
          ],
          [
            90.3813787,
            23.7749444
          ],
          [
            90.3813736,
            23.7750296
          ],
          [
            90.3813839,
            23.775129
          ],
          [
            90.3814615,
            23.7759431
          ],
          [
            90.3814667,
            23.7760378
          ],
          [
            90.3814615,
            23.7761325
          ],
          [
            90.3814408,
            23.7762271
          ],
          [
            90.3813304,
            23.7766876
          ],
          [
            90.3813094,
            23.7767406
          ],
          [
            90.3812802,
            23.7767788
          ],
          [
            90.3812197,
            23.77683
          ],
          [
            90.3811776,
            23.7768526
          ],
          [
            90.3811293,
            23.7768624
          ],
          [
            90.3810757,
            23.7768649
          ],
          [
            90.3810139,
            23.7768575
          ],
          [
            90.3807415,
            23.7767752
          ]
        ]
      },
      "id": "way/141821926"
    },
    {
      "type": "Feature",
      "properties": {
        "@id": "way/141821930",
        "cycle_rickshaw": "no",
        "highway": "secondary",
        "lanes": "2",
        "maxspeed": "50",
        "name": "আগারগাঁও লিংক রোড",
        "name:bn": "আগারগাঁও লিংক রোড",
        "name:en": "Agargaon Link Road",
        "oneway": "yes",
        "smoothness": "good",
        "surface": "asphalt"
      },
      "geometry": {
        "type": "LineString",
        "coordinates": [
          [
            90.3806954,
            23.776912
          ],
          [
            90.3808754,
            23.7769357
          ],
          [
            90.3810543,
            23.7769574
          ],
          [
            90.3811398,
            23.7769596
          ],
          [
            90.3812125,
            23.77695
          ],
          [
            90.3812467,
            23.7769407
          ],
          [
            90.3812867,
            23.7769163
          ],
          [
            90.3813325,
            23.7768725
          ],
          [
            90.3813587,
            23.7768328
          ],
          [
            90.3813849,
            23.7767833
          ],
          [
            90.3814057,
            23.7767313
          ],
          [
            90.3814212,
            23.7766818
          ],
          [
            90.3815287,
            23.7761876
          ],
          [
            90.3815491,
            23.7761136
          ],
          [
            90.3815577,
            23.7760187
          ],
          [
            90.3815554,
            23.7759116
          ],
          [
            90.3815308,
            23.7757091
          ],
          [
            90.3814793,
            23.7753224
          ],
          [
            90.3814559,
            23.7750905
          ],
          [
            90.3814538,
            23.7749545
          ],
          [
            90.381465,
            23.7748724
          ],
          [
            90.3814835,
            23.774798
          ],
          [
            90.381809,
            23.7737219
          ],
          [
            90.3823447,
            23.7718604
          ],
          [
            90.3826472,
            23.7708392
          ],
          [
            90.3827206,
            23.7706801
          ],
          [
            90.382799,
            23.7704863
          ],
          [
            90.3828405,
            23.7703373
          ],
          [
            90.3828614,
            23.7702281
          ],
          [
            90.3828769,
            23.7701054
          ],
          [
            90.3829245,
            23.7696802
          ],
          [
            90.3829608,
            23.7693416
          ],
          [
            90.3830065,
            23.7689908
          ],
          [
            90.3831302,
            23.7681762
          ],
          [
            90.383272,
            23.7671614
          ],
          [
            90.3834393,
            23.7662496
          ],
          [
            90.3834708,
            23.7661475
          ],
          [
            90.3834903,
            23.7660895
          ],
          [
            90.38354,
            23.7659774
          ],
          [
            90.3835871,
            23.7659021
          ],
          [
            90.3836766,
            23.7657926
          ],
          [
            90.3837325,
            23.7657308
          ],
          [
            90.3838098,
            23.7656689
          ],
          [
            90.3839009,
            23.7656135
          ],
          [
            90.3839705,
            23.7655917
          ],
          [
            90.3840924,
            23.7655594
          ],
          [
            90.3848467,
            23.7654334
          ],
          [
            90.3856231,
            23.7653015
          ],
          [
            90.3872889,
            23.7650481
          ],
          [
            90.3878426,
            23.7649604
          ],
          [
            90.3880729,
            23.7649344
          ],
          [
            90.3881804,
            23.7649232
          ],
          [
            90.3882659,
            23.7649261
          ],
          [
            90.3883755,
            23.7649339
          ],
          [
            90.3884636,
            23.7649556
          ],
          [
            90.3885073,
            23.7649781
          ],
          [
            90.3885736,
            23.7650259
          ],
          [
            90.3886319,
            23.7650973
          ],
          [
            90.3886687,
            23.7651939
          ],
          [
            90.3887532,
            23.7661606
          ],
          [
            90.3887761,
            23.7666844
          ],
          [
            90.3888098,
            23.7670878
          ],
          [
            90.3888167,
            23.7671993
          ],
          [
            90.3888106,
            23.7673874
          ],
          [
            90.3887795,
            23.767622
          ],
          [
            90.3887262,
            23.7678509
          ],
          [
            90.3886905,
            23.7680005
          ],
          [
            90.3886714,
            23.7680944
          ],
          [
            90.3886763,
            23.7681465
          ],
          [
            90.388693,
            23.7681993
          ],
          [
            90.3887386,
            23.7682712
          ],
          [
            90.3888077,
            23.7683401
          ],
          [
            90.3889112,
            23.7684273
          ],
          [
            90.3889637,
            23.7684655
          ],
          [
            90.3890684,
            23.7685274
          ],
          [
            90.3892004,
            23.7686177
          ]
        ]
      },
      "id": "way/141821930"
    },
    {
      "type": "Feature",
      "properties": {
        "@id": "way/142047545",
        "access": "yes",
        "cycle_rickshaw": "no",
        "highway": "primary_link",
        "lanes": "2",
        "lit": "yes",
        "oneway": "yes",
        "sidewalk": "left",
        "smoothness": "good",
        "surface": "asphalt",
        "vehicle": "yes"
      },
      "geometry": {
        "type": "LineString",
        "coordinates": [
          [
            90.3876266,
            23.7646051
          ],
          [
            90.3876941,
            23.7646246
          ],
          [
            90.3877509,
            23.7646318
          ],
          [
            90.3880647,
            23.7645962
          ],
          [
            90.3882214,
            23.7645854
          ],
          [
            90.3883996,
            23.7645821
          ],
          [
            90.388622,
            23.7645861
          ],
          [
            90.3886728,
            23.7645922
          ],
          [
            90.3887155,
            23.7646033
          ],
          [
            90.3887576,
            23.7646205
          ],
          [
            90.3888271,
            23.7646574
          ],
          [
            90.3888353,
            23.7646824
          ],
          [
            90.3888472,
            23.7647279
          ],
          [
            90.3888542,
            23.7649217
          ],
          [
            90.388857,
            23.7650923
          ],
          [
            90.3888687,
            23.7653365
          ],
          [
            90.3889118,
            23.7656604
          ],
          [
            90.3889538,
            23.7658555
          ]
        ]
      },
      "id": "way/142047545"
    },
    {
      "type": "Feature",
      "properties": {
        "@id": "way/142047546",
        "cycle_rickshaw": "no",
        "highway": "primary",
        "lanes": "2",
        "name": "Tejgaon Link Road",
        "name:en": "Tejgaon Link Road",
        "oneway": "yes",
        "surface": "asphalt"
      },
      "geometry": {
        "type": "LineString",
        "coordinates": [
          [
            90.3895625,
            23.7644854
          ],
          [
            90.3896322,
            23.7644911
          ],
          [
            90.3901013,
            23.7645366
          ],
          [
            90.3903142,
            23.7645573
          ],
          [
            90.390646,
            23.7645768
          ],
          [
            90.3908748,
            23.7645895
          ],
          [
            90.3910463,
            23.7645907
          ],
          [
            90.391127,
            23.7645895
          ],
          [
            90.3913312,
            23.7645729
          ],
          [
            90.3915989,
            23.7645406
          ],
          [
            90.3919548,
            23.7644894
          ],
          [
            90.3922519,
            23.76444
          ],
          [
            90.3925326,
            23.7643697
          ]
        ]
      },
      "id": "way/142047546"
    },
    {
      "type": "Feature",
      "properties": {
        "@id": "way/142049043",
        "access": "yes",
        "cycle_rickshaw": "no",
        "highway": "trunk",
        "lanes": "4",
        "lit": "yes",
        "maxheight": "5",
        "name": "বিমানবন্দর সড়ক",
        "name:bn": "বিমানবন্দর সড়ক",
        "name:en": "Airport Road",
        "oneway": "yes",
        "sidewalk": "left",
        "surface": "asphalt",
        "vehicle": "yes"
      },
      "geometry": {
        "type": "LineString",
        "coordinates": [
          [
            90.389941,
            23.7584733
          ],
          [
            90.3898377,
            23.7588358
          ],
          [
            90.3897559,
            23.7590805
          ],
          [
            90.3896827,
            23.7593203
          ],
          [
            90.3895666,
            23.7597752
          ],
          [
            90.3894489,
            23.7602365
          ],
          [
            90.3892846,
            23.7610241
          ],
          [
            90.3891934,
            23.7617225
          ],
          [
            90.3891515,
            23.7621016
          ],
          [
            90.3890986,
            23.7627001
          ],
          [
            90.3890433,
            23.7633508
          ],
          [
            90.3890297,
            23.7634635
          ],
          [
            90.3889904,
            23.7638958
          ],
          [
            90.3889782,
            23.7640311
          ],
          [
            90.3889636,
            23.7642874
          ]
        ]
      },
      "id": "way/142049043"
    },
    {
      "type": "Feature",
      "properties": {
        "@id": "way/143870422",
        "cycle_rickshaw": "no",
        "highway": "primary",
        "lanes": "2",
        "name": "Tejgaon Link Road",
        "name:en": "Tejgaon Link Road",
        "oneway": "yes",
        "surface": "asphalt"
      },
      "geometry": {
        "type": "LineString",
        "coordinates": [
          [
            90.3925124,
            23.7642829
          ],
          [
            90.392326,
            23.7643269
          ],
          [
            90.3919877,
            23.7643883
          ],
          [
            90.3915414,
            23.7644478
          ],
          [
            90.3912758,
            23.7644803
          ],
          [
            90.391044,
            23.7644866
          ],
          [
            90.3910076,
            23.7644898
          ],
          [
            90.3909119,
            23.764489
          ],
          [
            90.3906407,
            23.76448
          ],
          [
            90.3904612,
            23.7644724
          ],
          [
            90.3902328,
            23.7644479
          ],
          [
            90.3895639,
            23.7643761
          ]
        ]
      },
      "id": "way/143870422"
    },
    {
      "type": "Feature",
      "properties": {
        "@id": "way/144567404",
        "highway": "secondary",
        "lanes": "2",
        "name": "কামাল আতাতুর্ক এভিনিউ",
        "name:bn": "কামাল আতাতুর্ক এভিনিউ",
        "name:en": "Kamal Ataturk Avenue",
        "name:ur": "کمال اتاترک ایونیو",
        "oneway": "yes",
        "surface": "asphalt"
      },
      "geometry": {
        "type": "LineString",
        "coordinates": [
          [
            90.4097727,
            23.7934589
          ],
          [
            90.4095413,
            23.7934241
          ],
          [
            90.4089699,
            23.7933907
          ],
          [
            90.408624,
            23.7934013
          ],
          [
            90.4085554,
            23.7934033
          ],
          [
            90.408439,
            23.7934069
          ],
          [
            90.4079023,
            23.793479
          ],
          [
            90.4076432,
            23.7935181
          ],
          [
            90.4072486,
            23.7935649
          ],
          [
            90.4066298,
            23.7936384
          ],
          [
            90.4059285,
            23.7937443
          ],
          [
            90.4045556,
            23.7939294
          ],
          [
            90.403104,
            23.7941163
          ],
          [
            90.4023254,
            23.7942331
          ],
          [
            90.4019666,
            23.794287
          ],
          [
            90.4017859,
            23.7943141
          ],
          [
            90.4010479,
            23.7944073
          ],
          [
            90.4009201,
            23.7944239
          ]
        ]
      },
      "id": "way/144567404"
    },
    {
      "type": "Feature",
      "properties": {
        "@id": "way/144567415",
        "highway": "tertiary",
        "lanes": "2",
        "name": "সড়ক ১২",
        "name:en": "Road 12",
        "name:ur": "روڈ 12",
        "surface": "asphalt"
      },
      "geometry": {
        "type": "LineString",
        "coordinates": [
          [
            90.408439,
            23.7934069
          ],
          [
            90.4083526,
            23.7928846
          ],
          [
            90.4083316,
            23.7927579
          ],
          [
            90.4082782,
            23.792435
          ],
          [
            90.4082504,
            23.7922671
          ],
          [
            90.4081745,
            23.7918085
          ],
          [
            90.4081634,
            23.7917409
          ],
          [
            90.4080889,
            23.7912906
          ],
          [
            90.4079935,
            23.7907141
          ],
          [
            90.4079391,
            23.7903853
          ]
        ]
      },
      "id": "way/144567415"
    },
    {
      "type": "Feature",
      "properties": {
        "@id": "way/225569436",
        "highway": "residential",
        "name": "সড়ক ২১",
        "name:en": "Road 21"
      },
      "geometry": {
        "type": "LineString",
        "coordinates": [
          [
            90.4056637,
            23.7938842
          ],
          [
            90.405779,
            23.7945941
          ],
          [
            90.4058442,
            23.7949607
          ]
        ]
      },
      "id": "way/225569436"
    },
    {
      "type": "Feature",
      "properties": {
        "@id": "way/225569437",
        "highway": "residential",
        "lane_markings": "no",
        "name": "সড়ক ২১",
        "name:en": "Road 21",
        "surface": "asphalt"
      },
      "geometry": {
        "type": "LineString",
        "coordinates": [
          [
            90.405779,
            23.7945941
          ],
          [
            90.404633,
            23.7947777
          ],
          [
            90.4036924,
            23.7949096
          ],
          [
            90.4026816,
            23.7950425
          ]
        ]
      },
      "id": "way/225569437"
    },
    {
      "type": "Feature",
      "properties": {
        "@id": "way/232960150",
        "highway": "residential",
        "lit": "yes",
        "maxspeed": "20",
        "name": "Koshai Bari",
        "name:bn": "Koshai Bari",
        "surface": "concrete"
      },
      "geometry": {
        "type": "LineString",
        "coordinates": [
          [
            90.391044,
            23.7644866
          ],
          [
            90.3910394,
            23.7642313
          ],
          [
            90.3910501,
            23.7640853
          ],
          [
            90.3910541,
            23.7640336
          ],
          [
            90.3910514,
            23.7639974
          ],
          [
            90.3910487,
            23.7639462
          ],
          [
            90.3910265,
            23.7638272
          ],
          [
            90.3910262,
            23.763722
          ],
          [
            90.391029,
            23.7636263
          ],
          [
            90.3910368,
            23.7635712
          ]
        ]
      },
      "id": "way/232960150"
    },
    {
      "type": "Feature",
      "properties": {
        "@id": "way/232960207",
        "highway": "living_street",
        "maxspeed": "20",
        "name": "Hamdard Street",
        "name:en": "Hamdard Street",
        "surface": "concrete"
      },
      "geometry": {
        "type": "LineString",
        "coordinates": [
          [
            90.3891031,
            23.7639869
          ],
          [
            90.3895372,
            23.7640598
          ],
          [
            90.3898864,
            23.764121
          ],
          [
            90.3900387,
            23.7641529
          ],
          [
            90.390262,
            23.7641749
          ],
          [
            90.3904611,
            23.7641866
          ]
        ]
      },
      "id": "way/232960207"
    },
    {
      "type": "Feature",
      "properties": {
        "@id": "way/232960323",
        "highway": "residential",
        "maxspeed": "20",
        "name": "Uttara Bank Street",
        "surface": "concrete"
      },
      "geometry": {
        "type": "LineString",
        "coordinates": [
          [
            90.3891933,
            23.7629803
          ],
          [
            90.3897234,
            23.7629862
          ],
          [
            90.3902169,
            23.7629897
          ],
          [
            90.3902629,
            23.7629933
          ],
          [
            90.3911345,
            23.7630613
          ],
          [
            90.3910986,
            23.7632909
          ],
          [
            90.3910368,
            23.7635712
          ]
        ]
      },
      "id": "way/232960323"
    },
    {
      "type": "Feature",
      "properties": {
        "@id": "way/232960339",
        "highway": "residential",
        "maxspeed": "20",
        "name": "Galib Shoroni",
        "surface": "concrete"
      },
      "geometry": {
        "type": "LineString",
        "coordinates": [
          [
            90.3892339,
            23.7625669
          ],
          [
            90.3902288,
            23.762677
          ],
          [
            90.391203,
            23.7627796
          ],
          [
            90.3911678,
            23.7629763
          ]
        ]
      },
      "id": "way/232960339"
    },
    {
      "type": "Feature",
      "properties": {
        "@id": "way/232960557",
        "access": "private",
        "highway": "service",
        "maxspeed": "20",
        "name": "Ellen Bari Govt. Staff Quarter",
        "name:en": "Ellen Bari Govt. Staff Quarter",
        "surface": "asphalt"
      },
      "geometry": {
        "type": "LineString",
        "coordinates": [
          [
            90.3890739,
            23.7656497
          ],
          [
            90.3892948,
            23.7656256
          ],
          [
            90.389623,
            23.7655898
          ],
          [
            90.3897027,
            23.7655505
          ],
          [
            90.3897652,
            23.7655113
          ],
          [
            90.3899234,
            23.765364
          ],
          [
            90.3900441,
            23.7652633
          ],
          [
            90.3901407,
            23.7651988
          ],
          [
            90.3902372,
            23.7651578
          ],
          [
            90.3904733,
            23.7651332
          ],
          [
            90.3907522,
            23.765148
          ],
          [
            90.3910312,
            23.7651897
          ],
          [
            90.3910526,
            23.7651946
          ],
          [
            90.391121,
            23.7646556
          ],
          [
            90.391127,
            23.7645895
          ]
        ]
      },
      "id": "way/232960557"
    },
    {
      "type": "Feature",
      "properties": {
        "@id": "way/296180014",
        "highway": "residential",
        "lane_markings": "no",
        "name": "Gate 6a Road",
        "surface": "concrete"
      },
      "geometry": {
        "type": "LineString",
        "coordinates": [
          [
            90.3890986,
            23.7627001
          ],
          [
            90.3882536,
            23.7625669
          ],
          [
            90.3881642,
            23.7625467
          ],
          [
            90.3881464,
            23.7625423
          ],
          [
            90.3881176,
            23.762536
          ],
          [
            90.3879675,
            23.7625056
          ],
          [
            90.3879666,
            23.7624145
          ],
          [
            90.3878706,
            23.7624134
          ],
          [
            90.3874702,
            23.7624067
          ],
          [
            90.3874314,
            23.7625985
          ],
          [
            90.3871688,
            23.7625392
          ],
          [
            90.3871869,
            23.7623673
          ],
          [
            90.3865471,
            23.7621968
          ]
        ]
      },
      "id": "way/296180014"
    },
    {
      "type": "Feature",
      "properties": {
        "@id": "way/296182052",
        "highway": "living_street",
        "name": "Road Number 7",
        "surface": "concrete"
      },
      "geometry": {
        "type": "LineString",
        "coordinates": [
          [
            90.3890297,
            23.7634635
          ],
          [
            90.3889159,
            23.7634524
          ],
          [
            90.3884,
            23.7634068
          ],
          [
            90.3881109,
            23.7633762
          ]
        ]
      },
      "id": "way/296182052"
    },
    {
      "type": "Feature",
      "properties": {
        "@id": "way/296184350",
        "highway": "service",
        "layer": "-1"
      },
      "geometry": {
        "type": "LineString",
        "coordinates": [
          [
            90.3901013,
            23.7645366
          ],
          [
            90.3897528,
            23.7649354
          ],
          [
            90.3896522,
            23.7650579
          ],
          [
            90.3896297,
            23.7650815
          ],
          [
            90.3895986,
            23.7650991
          ],
          [
            90.3895578,
            23.7651119
          ],
          [
            90.3894761,
            23.7651172
          ],
          [
            90.3891136,
            23.7651195
          ],
          [
            90.3890447,
            23.76512
          ]
        ]
      },
      "id": "way/296184350"
    },
    {
      "type": "Feature",
      "properties": {
        "@id": "way/324550133",
        "highway": "service"
      },
      "geometry": {
        "type": "LineString",
        "coordinates": [
          [
            90.3915332,
            23.7664848
          ],
          [
            90.3911067,
            23.7663155
          ],
          [
            90.3910116,
            23.7664664
          ],
          [
            90.3905676,
            23.7663252
          ],
          [
            90.3905132,
            23.7664249
          ],
          [
            90.3904764,
            23.7664922
          ],
          [
            90.389999,
            23.7663547
          ],
          [
            90.3902028,
            23.766664
          ],
          [
            90.3900916,
            23.7668347
          ]
        ]
      },
      "id": "way/324550133"
    },
    {
      "type": "Feature",
      "properties": {
        "@id": "way/503888730",
        "highway": "residential",
        "name": "সড়ক ১৫",
        "name:en": "Road 15",
        "name:ur": "روڈ 15",
        "surface": "asphalt"
      },
      "geometry": {
        "type": "LineString",
        "coordinates": [
          [
            90.403439,
            23.7926475
          ],
          [
            90.4035129,
            23.7926636
          ],
          [
            90.4042715,
            23.7925389
          ],
          [
            90.4050453,
            23.7924459
          ],
          [
            90.405537,
            23.7923948
          ],
          [
            90.4057246,
            23.7923716
          ],
          [
            90.4057516,
            23.7923616
          ],
          [
            90.4057783,
            23.7923391
          ]
        ]
      },
      "id": "way/503888730"
    },
    {
      "type": "Feature",
      "properties": {
        "@id": "way/510182037",
        "highway": "residential",
        "name": "সড়ক ১৩",
        "name:en": "Road 13",
        "name:ur": "روڈ 13",
        "surface": "asphalt"
      },
      "geometry": {
        "type": "LineString",
        "coordinates": [
          [
            90.407252,
            23.7919123
          ],
          [
            90.4071631,
            23.7914134
          ],
          [
            90.4070753,
            23.7908192
          ],
          [
            90.4070222,
            23.7905135
          ]
        ]
      },
      "id": "way/510182037"
    },
    {
      "type": "Feature",
      "properties": {
        "@id": "way/510182038",
        "highway": "residential",
        "name": "সড়ক ১৩",
        "name:en": "Road 13"
      },
      "geometry": {
        "type": "LineString",
        "coordinates": [
          [
            90.407477,
            23.7929943
          ],
          [
            90.4073961,
            23.7925466
          ]
        ]
      },
      "id": "way/510182038"
    },
    {
      "type": "Feature",
      "properties": {
        "@id": "way/510182039",
        "highway": "residential"
      },
      "geometry": {
        "type": "LineString",
        "coordinates": [
          [
            90.406586,
            23.7933693
          ],
          [
            90.4075947,
            23.7932291
          ]
        ]
      },
      "id": "way/510182039"
    },
    {
      "type": "Feature",
      "properties": {
        "@id": "way/510182245",
        "highway": "residential",
        "lane_markings": "no",
        "name": "সড়ক ১৭এ",
        "name:en": "Road 17A",
        "surface": "asphalt"
      },
      "geometry": {
        "type": "LineString",
        "coordinates": [
          [
            90.4082504,
            23.7922671
          ],
          [
            90.409367,
            23.7921165
          ]
        ]
      },
      "id": "way/510182245"
    },
    {
      "type": "Feature",
      "properties": {
        "@id": "way/606023908",
        "highway": "primary_link",
        "name": "Koshai Bari",
        "surface": "asphalt"
      },
      "geometry": {
        "type": "LineString",
        "coordinates": [
          [
            90.391044,
            23.7644866
          ],
          [
            90.3910463,
            23.7645907
          ]
        ]
      },
      "id": "way/606023908"
    },
    {
      "type": "Feature",
      "properties": {
        "@id": "way/606350263",
        "highway": "residential",
        "name": "সড়ক ২৪",
        "name:bn": "সড়ক ২৪",
        "name:en": "Road 24",
        "name:ur": "روڈ 24"
      },
      "geometry": {
        "type": "LineString",
        "coordinates": [
          [
            90.4066636,
            23.7945402
          ],
          [
            90.4081944,
            23.7953718
          ]
        ]
      },
      "id": "way/606350263"
    },
    {
      "type": "Feature",
      "properties": {
        "@id": "way/606351146",
        "highway": "secondary_link",
        "name": "এনামুল হক চৌধুরী সড়ক",
        "name:en": "Enamul Haque Chowdhury Road, Road 10"
      },
      "geometry": {
        "type": "LineString",
        "coordinates": [
          [
            90.4066298,
            23.7936384
          ],
          [
            90.4066389,
            23.7937491
          ]
        ]
      },
      "id": "way/606351146"
    },
    {
      "type": "Feature",
      "properties": {
        "@id": "way/669752741",
        "cycle_rickshaw": "no",
        "highway": "trunk",
        "lanes": "4",
        "maxspeed": "60",
        "name": "বিমানবন্দর সড়ক",
        "name:en": "Airport Road",
        "oneway": "yes",
        "source": "bing",
        "surface": "asphalt"
      },
      "geometry": {
        "type": "LineString",
        "coordinates": [
          [
            90.3890859,
            23.7645223
          ],
          [
            90.3891005,
            23.7643021
          ]
        ]
      },
      "id": "way/669752741"
    },
    {
      "type": "Feature",
      "properties": {
        "@id": "way/669752742",
        "access": "yes",
        "cycle_rickshaw": "no",
        "highway": "trunk",
        "lanes": "4",
        "lit": "yes",
        "maxspeed": "60",
        "name": "পুরাতন বিমানবন্দর সড়ক",
        "name:en": "Old Airport Road",
        "oneway": "yes",
        "sidewalk": "left",
        "surface": "asphalt",
        "vehicle": "yes"
      },
      "geometry": {
        "type": "LineString",
        "coordinates": [
          [
            90.3889636,
            23.7642874
          ],
          [
            90.3889455,
            23.7645191
          ]
        ]
      },
      "id": "way/669752742"
    },
    {
      "type": "Feature",
      "properties": {
        "@id": "way/676575027",
        "highway": "service"
      },
      "geometry": {
        "type": "LineString",
        "coordinates": [
          [
            90.3910526,
            23.7651946
          ],
          [
            90.3909858,
            23.7655225
          ],
          [
            90.3909847,
            23.7655586
          ],
          [
            90.3909944,
            23.7655917
          ],
          [
            90.3910178,
            23.76562
          ],
          [
            90.3910433,
            23.7656365
          ],
          [
            90.391071,
            23.7656472
          ],
          [
            90.3912285,
            23.7656823
          ],
          [
            90.3913265,
            23.7657057
          ],
          [
            90.3913606,
            23.7657281
          ],
          [
            90.3913818,
            23.7657505
          ],
          [
            90.3913979,
            23.7657856
          ],
          [
            90.3913989,
            23.7658265
          ],
          [
            90.3913158,
            23.7661246
          ],
          [
            90.3913136,
            23.7661548
          ],
          [
            90.3913222,
            23.766185
          ],
          [
            90.3913541,
            23.7662512
          ],
          [
            90.3913903,
            23.7663155
          ],
          [
            90.3915332,
            23.7664848
          ]
        ]
      },
      "id": "way/676575027"
    },
    {
      "type": "Feature",
      "properties": {
        "@id": "way/697846848",
        "check_date:surface": "2026-05-17",
        "highway": "service",
        "surface": "paved"
      },
      "geometry": {
        "type": "LineString",
        "coordinates": [
          [
            90.3890845,
            23.7659319
          ],
          [
            90.3894447,
            23.7659132
          ]
        ]
      },
      "id": "way/697846848"
    },
    {
      "type": "Feature",
      "properties": {
        "@id": "way/697846849",
        "highway": "service"
      },
      "geometry": {
        "type": "LineString",
        "coordinates": [
          [
            90.3896715,
            23.765952
          ],
          [
            90.3896197,
            23.7658494
          ],
          [
            90.3895976,
            23.7658414
          ],
          [
            90.389564,
            23.7658494
          ],
          [
            90.3894447,
            23.7659132
          ],
          [
            90.3894795,
            23.7659193
          ],
          [
            90.3894983,
            23.765939
          ],
          [
            90.3895131,
            23.7660513
          ],
          [
            90.3895238,
            23.7660672
          ],
          [
            90.389552,
            23.7660758
          ],
          [
            90.3895902,
            23.7660752
          ],
          [
            90.3896532,
            23.7660727
          ],
          [
            90.3896734,
            23.7660636
          ],
          [
            90.389678,
            23.7660422
          ]
        ]
      },
      "id": "way/697846849"
    },
    {
      "type": "Feature",
      "properties": {
        "@id": "way/757765361",
        "highway": "living_street"
      },
      "geometry": {
        "type": "LineString",
        "coordinates": [
          [
            90.3863686,
            23.7625912
          ],
          [
            90.3867239,
            23.7627052
          ],
          [
            90.3867413,
            23.7627212
          ],
          [
            90.3867306,
            23.7627445
          ],
          [
            90.3870524,
            23.7628464
          ],
          [
            90.3870658,
            23.7628709
          ],
          [
            90.3870444,
            23.7629188
          ],
          [
            90.3870176,
            23.7629925
          ],
          [
            90.387617,
            23.7631115
          ]
        ]
      },
      "id": "way/757765361"
    },
    {
      "type": "Feature",
      "properties": {
        "@id": "way/757780204",
        "highway": "living_street"
      },
      "geometry": {
        "type": "LineString",
        "coordinates": [
          [
            90.3879675,
            23.7625056
          ],
          [
            90.3879625,
            23.762737
          ],
          [
            90.3878374,
            23.76274
          ],
          [
            90.3878279,
            23.7630894
          ]
        ]
      },
      "id": "way/757780204"
    },
    {
      "type": "Feature",
      "properties": {
        "@id": "way/762793069",
        "highway": "residential",
        "name": "Raja Miyar Goli",
        "name:en": "Raja Miyar Goli"
      },
      "geometry": {
        "type": "LineString",
        "coordinates": [
          [
            90.3902629,
            23.7629933
          ],
          [
            90.3901729,
            23.7637346
          ]
        ]
      },
      "id": "way/762793069"
    },
    {
      "type": "Feature",
      "properties": {
        "@id": "way/823585506",
        "highway": "path",
        "name": "Commisioner er goli"
      },
      "geometry": {
        "type": "LineString",
        "coordinates": [
          [
            90.3910986,
            23.7632909
          ],
          [
            90.3906818,
            23.7633065
          ],
          [
            90.3906095,
            23.7633233
          ]
        ]
      },
      "id": "way/823585506"
    },
    {
      "type": "Feature",
      "properties": {
        "@id": "way/1061772991",
        "access": "yes",
        "cycle_rickshaw": "no",
        "highway": "trunk",
        "lanes": "3",
        "lit": "yes",
        "maxspeed": "60",
        "name": "পুরাতন বিমানবন্দর সড়ক",
        "name:bn": "পুরাতন বিমানবন্দর সড়ক",
        "name:en": "Old Airport Road",
        "oneway": "yes",
        "sidewalk": "left",
        "surface": "asphalt",
        "vehicle": "yes"
      },
      "geometry": {
        "type": "LineString",
        "coordinates": [
          [
            90.3889455,
            23.7645191
          ],
          [
            90.3889329,
            23.7647802
          ],
          [
            90.3889296,
            23.7648661
          ],
          [
            90.3889498,
            23.7656007
          ],
          [
            90.3889538,
            23.7658555
          ]
        ]
      },
      "id": "way/1061772991"
    },
    {
      "type": "Feature",
      "properties": {
        "@id": "way/1088755097",
        "covered": "yes",
        "highway": "service"
      },
      "geometry": {
        "type": "LineString",
        "coordinates": [
          [
            90.389678,
            23.7660422
          ],
          [
            90.3896715,
            23.765952
          ]
        ]
      },
      "id": "way/1088755097"
    },
    {
      "type": "Feature",
      "properties": {
        "@id": "way/1126771714",
        "bicycle": "no",
        "bridge": "yes",
        "highway": "footway",
        "horse": "no",
        "layer": "1",
        "name": "Foot Over Bridge",
        "surface": "metal",
        "width": "2"
      },
      "geometry": {
        "type": "LineString",
        "coordinates": [
          [
            90.3892254,
            23.763351
          ],
          [
            90.3892331,
            23.7632352
          ],
          [
            90.3892467,
            23.7630913
          ]
        ]
      },
      "id": "way/1126771714"
    },
    {
      "type": "Feature",
      "properties": {
        "@id": "way/1126771715",
        "bicycle": "no",
        "bridge": "yes",
        "highway": "footway",
        "horse": "no",
        "layer": "1",
        "name": "Foot Over Bridge",
        "surface": "metal",
        "width": "2"
      },
      "geometry": {
        "type": "LineString",
        "coordinates": [
          [
            90.3889936,
            23.7632217
          ],
          [
            90.3892331,
            23.7632352
          ]
        ]
      },
      "id": "way/1126771715"
    },
    {
      "type": "Feature",
      "properties": {
        "@id": "way/1126771716",
        "bicycle": "no",
        "bridge": "yes",
        "highway": "footway",
        "horse": "no",
        "layer": "1",
        "name": "Foot Over Bridge",
        "surface": "metal",
        "width": "2"
      },
      "geometry": {
        "type": "LineString",
        "coordinates": [
          [
            90.3889991,
            23.7630858
          ],
          [
            90.3889936,
            23.7632217
          ],
          [
            90.3889894,
            23.7633179
          ]
        ]
      },
      "id": "way/1126771716"
    },
    {
      "type": "Feature",
      "properties": {
        "@id": "way/1126771717",
        "access": "yes",
        "agricultural": "yes",
        "alt_name": "বিজয় সরণি",
        "alt_name:bn": "বিজয় সরণি",
        "bicycle": "yes",
        "cycle_rickshaw": "no",
        "emergency": "yes",
        "foot": "yes",
        "goods": "yes",
        "hgv": "yes",
        "highway": "primary_link",
        "horse": "yes",
        "hov": "yes",
        "lanes": "3",
        "lit": "yes",
        "maxspeed": "60",
        "motor_vehicle": "yes",
        "motorcar": "yes",
        "motorcycle": "yes",
        "name": "বিজয় সরণী",
        "name:bn": "বিজয় সরণী",
        "name:en": "Bijoy Sharani",
        "oneway": "yes",
        "psv": "yes",
        "sidewalk": "left",
        "surface": "asphalt",
        "tourist_bus": "yes",
        "vehicle": "yes",
        "wikidata": "Q16346007",
        "wikipedia": "bn:বিজয় সরণি"
      },
      "geometry": {
        "type": "LineString",
        "coordinates": [
          [
            90.3889782,
            23.7640311
          ],
          [
            90.3889155,
            23.7640993
          ],
          [
            90.3888529,
            23.7641478
          ],
          [
            90.3886927,
            23.7642203
          ],
          [
            90.388554,
            23.7642682
          ],
          [
            90.3884294,
            23.7643039
          ],
          [
            90.3883478,
            23.7643396
          ]
        ]
      },
      "id": "way/1126771717"
    },
    {
      "type": "Feature",
      "properties": {
        "@id": "way/1126771718",
        "access": "yes",
        "agricultural": "yes",
        "alt_name": "বিজয় সরণি",
        "bicycle": "yes",
        "cycle_rickshaw": "no",
        "emergency": "yes",
        "foot": "yes",
        "goods": "yes",
        "hgv": "yes",
        "highway": "primary",
        "horse": "yes",
        "hov": "yes",
        "lanes": "3",
        "lit": "yes",
        "maxspeed": "60",
        "motor_vehicle": "yes",
        "motorcar": "yes",
        "motorcycle": "yes",
        "name": "বিজয় সরণী",
        "name:bn": "বিজয় সরণী",
        "name:en": "Bijoy Sharani",
        "oneway": "yes",
        "psv": "yes",
        "sidewalk": "left",
        "smoothness": "good",
        "surface": "asphalt",
        "tourist_bus": "yes",
        "vehicle": "yes",
        "wikidata": "Q16346007",
        "wikipedia": "bn:বিজয় সরণি"
      },
      "geometry": {
        "type": "LineString",
        "coordinates": [
          [
            90.3883478,
            23.7643396
          ],
          [
            90.3865205,
            23.7646472
          ],
          [
            90.385516,
            23.7648316
          ],
          [
            90.3847309,
            23.7649435
          ],
          [
            90.3843012,
            23.7649953
          ],
          [
            90.3842327,
            23.7649953
          ],
          [
            90.3839452,
            23.7649477
          ],
          [
            90.3839295,
            23.7649296
          ],
          [
            90.3839137,
            23.7649194
          ],
          [
            90.3836997,
            23.7648666
          ],
          [
            90.3835854,
            23.7648189
          ],
          [
            90.3834899,
            23.7647614
          ],
          [
            90.383425,
            23.7647114
          ]
        ]
      },
      "id": "way/1126771718"
    },
    {
      "type": "Feature",
      "properties": {
        "@id": "way/1126771719",
        "access": "yes",
        "agricultural": "yes",
        "alt_name": "বিজয় সরণি",
        "bicycle": "yes",
        "cycle_rickshaw": "no",
        "emergency": "yes",
        "foot": "yes",
        "goods": "yes",
        "hgv": "yes",
        "highway": "primary",
        "horse": "yes",
        "hov": "yes",
        "lanes": "3",
        "lit": "yes",
        "maxspeed": "60",
        "motor_vehicle": "yes",
        "motorcar": "yes",
        "motorcycle": "yes",
        "name": "বিজয় সরণী",
        "name:bn": "বিজয় সরণী",
        "name:en": "Bijoy Sharani",
        "oneway": "yes",
        "psv": "yes",
        "sidewalk": "left",
        "surface": "asphalt",
        "tourist_bus": "yes",
        "vehicle": "yes",
        "wikidata": "Q16346007",
        "wikipedia": "bn:বিজয় সরণি"
      },
      "geometry": {
        "type": "LineString",
        "coordinates": [
          [
            90.3889636,
            23.7642874
          ],
          [
            90.3888625,
            23.7642785
          ],
          [
            90.3887418,
            23.764278
          ],
          [
            90.3883478,
            23.7643396
          ]
        ]
      },
      "id": "way/1126771719"
    },
    {
      "type": "Feature",
      "properties": {
        "@id": "way/1126771720",
        "cycle_rickshaw": "no",
        "highway": "primary",
        "lanes": "2",
        "name": "Tejgaon Link Road",
        "name:en": "Tejgaon Link Road",
        "oneway": "yes",
        "surface": "asphalt"
      },
      "geometry": {
        "type": "LineString",
        "coordinates": [
          [
            90.3895639,
            23.7643761
          ],
          [
            90.3892033,
            23.7643157
          ],
          [
            90.3891005,
            23.7643021
          ],
          [
            90.3889636,
            23.7642874
          ]
        ]
      },
      "id": "way/1126771720"
    },
    {
      "type": "Feature",
      "properties": {
        "@id": "way/1126771721",
        "cycle_rickshaw": "no",
        "highway": "primary_link",
        "lanes": "2",
        "name": "Tejgaon Link Road",
        "oneway": "yes",
        "surface": "asphalt"
      },
      "geometry": {
        "type": "LineString",
        "coordinates": [
          [
            90.3895639,
            23.7643761
          ],
          [
            90.3893847,
            23.7643254
          ],
          [
            90.3892574,
            23.7642554
          ],
          [
            90.38917,
            23.76417
          ],
          [
            90.3891001,
            23.7640766
          ]
        ]
      },
      "id": "way/1126771721"
    },
    {
      "type": "Feature",
      "properties": {
        "@id": "way/1126771722",
        "cycle_rickshaw": "no",
        "highway": "primary",
        "lanes": "2",
        "name": "Tejgaon Link Road",
        "name:en": "Tejgaon Link Road",
        "oneway": "yes",
        "surface": "asphalt"
      },
      "geometry": {
        "type": "LineString",
        "coordinates": [
          [
            90.3889455,
            23.7645191
          ],
          [
            90.3890859,
            23.7645223
          ],
          [
            90.3895625,
            23.7644854
          ]
        ]
      },
      "id": "way/1126771722"
    },
    {
      "type": "Feature",
      "properties": {
        "@id": "way/1126771723",
        "cycle_rickshaw": "no",
        "highway": "primary_link",
        "lanes": "2",
        "name": "Tejgaon Link Road",
        "oneway": "yes",
        "surface": "asphalt"
      },
      "geometry": {
        "type": "LineString",
        "coordinates": [
          [
            90.3890653,
            23.7647768
          ],
          [
            90.3891279,
            23.7646658
          ],
          [
            90.3891903,
            23.7646071
          ],
          [
            90.3893075,
            23.7645438
          ],
          [
            90.3894339,
            23.7645075
          ],
          [
            90.3895625,
            23.7644854
          ]
        ]
      },
      "id": "way/1126771723"
    },
    {
      "type": "Feature",
      "properties": {
        "@id": "way/1317835198",
        "highway": "service"
      },
      "geometry": {
        "type": "LineString",
        "coordinates": [
          [
            90.3864875,
            23.764363
          ],
          [
            90.3865205,
            23.7646472
          ]
        ]
      },
      "id": "way/1317835198"
    },
    {
      "type": "Feature",
      "properties": {
        "@id": "way/1317835199",
        "highway": "service"
      },
      "geometry": {
        "type": "LineString",
        "coordinates": [
          [
            90.3864751,
            23.7642909
          ],
          [
            90.3865453,
            23.7641498
          ],
          [
            90.3866539,
            23.7639577
          ],
          [
            90.3867118,
            23.7636894
          ],
          [
            90.3867371,
            23.7635338
          ],
          [
            90.3867082,
            23.7634146
          ],
          [
            90.3866611,
            23.7633053
          ]
        ]
      },
      "id": "way/1317835199"
    },
    {
      "type": "Feature",
      "properties": {
        "@id": "way/1370509371",
        "highway": "secondary_link",
        "name": "সড়ক ২৭",
        "name:en": "Road 27",
        "name:ur": "روڈ 27"
      },
      "geometry": {
        "type": "LineString",
        "coordinates": [
          [
            90.4085554,
            23.7934033
          ],
          [
            90.4085753,
            23.7935169
          ]
        ]
      },
      "id": "way/1370509371"
    }
  ]
}